{"type": "FeatureCollection", "features": [{"type": "Feature", "properties": {"norad_id": 24946, "name": "IRIDIUM 33", "group": "iridium-33-debris", "lat": 1.00911851387184, "lon": 65.13848360761382, "alt_km": 783.4176129337939, "timestamp": "2025-12-20T05:41:50.415531+00:00", "meta": {"OBJECT_NAME": "IRIDIUM 33", "OBJECT_ID": "1997-051C", "EPOCH": "2025-12-19T11:17:03.474240", "MEAN_MOTION": 14.35041894, "ECCENTRICITY": 0.0007833, "INCLINATION": 86.3867, "RA_OF_ASC_NODE": 65.3967, "ARG_OF_PERICENTER": 177.5382, "MEAN_ANOMALY": 182.5855, "EPHEMERIS_TYPE": 0, "CLASSIFICATION_TYPE": "U", "NORAD_CAT_ID": 24946, "ELEMENT_SET_NO": 999, "REV_AT_EPOCH": 47931, "BSTAR": 8.767e-05, "MEAN_MOTION_DOT": 2.7e-06, "MEAN_MOTION_DDOT": 0}, "tle": {"line1": "1 24946U 97051C   25353.47017910  .00000270  00000+0  87670-4 0  9994", "line2": "2 24946  86.3867  65.3967 0007833 177.5382 182.5855 14.35041894479312"}}, "geometry": {"type": "Point", "coordinates": [65.13848360761382, 1.00911851387184]}}, {"type": "Feature", "properties": {"norad_id": 33773, "name": "IRIDIUM 33 DEB", "group": "iridium-33-debris", "lat": -0.06734739286421297, "lon": -122.58352310820405, "alt_km": 745.4861796651658, "timestamp": "2025-12-20T05:41:50.415576+00:00", "meta": {"OBJECT_NAME": "IRIDIUM 33 DEB", "OBJECT_ID": "1997-051L", "EPOCH": "2025-12-19T22:12:41.387328", "MEAN_MOTION": 14.43271058, "ECCENTRICITY": 0.00130701, "INCLINATION": 86.4003, "RA_OF_ASC_NODE": 57.5444, "ARG_OF_PERICENTER": 125.5672, "MEAN_ANOMALY": 234.6749, "EPHEMERIS_TYPE": 0, "CLASSIFICATION_TYPE": "U", "NORAD_CAT_ID": 33773, "ELEMENT_SET_NO": 999, "REV_AT_EPOCH": 88451, "BSTAR": 0.00020534894, "MEAN_MOTION_DOT": 7.12e-06, "MEAN_MOTION_DDOT": 0}, "tle": {"line1": "1 33773U 97051L   25353.92547902  .00000712  00000+0  20535-3 0  9998", "line2": "2 33773  86.4003  57.5444 0013070 125.5672 234.6749 14.43271058884510"}}, "geometry": {"type": "Point", "coordinates": [-122.58352310820405, -0.06734739286421297]}}, {"type": "Feature", "properties": {"norad_id": 33775, "name": "IRIDIUM 33 DEB", "group": "iridium-33-debris", "lat": -35.32664768194187, "lon": -131.06371421805483, "alt_km": 758.6915477288167, "timestamp": "2025-12-20T05:41:50.415595+00:00", "meta": {"OBJECT_NAME": "IRIDIUM 33 DEB", "OBJECT_ID": "1997-051N", "EPOCH": "2025-12-19T22:35:30.156000", "MEAN_MOTION": 14.41482661, "ECCENTRICITY": 0.00149848, "INCLINATION": 86.3629, "RA_OF_ASC_NODE": 46.4789, "ARG_OF_PERICENTER": 133.0121, "MEAN_ANOMALY": 346.7036, "EPHEMERIS_TYPE": 0, "CLASSIFICATION_TYPE": "U", "NORAD_CAT_ID": 33775, "ELEMENT_SET_NO": 999, "REV_AT_EPOCH": 88244, "BSTAR": 0.00022037788, "MEAN_MOTION_DOT": 7.36e-06, "MEAN_MOTION_DDOT": 0}, "tle": {"line1": "1 33775U 97051N   25353.94132125  .00000736  00000+0  22038-3 0  9995", "line2": "2 33775  86.3629  46.4789 0014984 133.0121 346.7036 14.41482661882448"}}, "geometry": {"type": "Point", "coordinates": [-131.06371421805483, -35.32664768194187]}}, {"type": "Feature", "properties": {"norad_id": 33776, "name": "IRIDIUM 33 DEB", "group": "iridium-33-debris", "lat": -2.522762024142569, "lon": 77.4686482178512, "alt_km": 778.2705151325517, "timestamp": "2025-12-20T05:41:50.415621+00:00", "meta": {"OBJECT_NAME": "IRIDIUM 33 DEB", "OBJECT_ID": "1997-051P", "EPOCH": "2025-12-19T11:23:30.764832", "MEAN_MOTION": 14.38246315, "ECCENTRICITY": 0.0015133, "INCLINATION": 86.4035, "RA_OF_ASC_NODE": 77.9477, "ARG_OF_PERICENTER": 168.6417, "MEAN_ANOMALY": 202.3256, "EPHEMERIS_TYPE": 0, "CLASSIFICATION_TYPE": "U", "NORAD_CAT_ID": 33776, "ELEMENT_SET_NO": 999, "REV_AT_EPOCH": 88179, "BSTAR": 0.00020186, "MEAN_MOTION_DOT": 6.34e-06, "MEAN_MOTION_DDOT": 0}, "tle": {"line1": "1 33776U 97051P   25353.47466163  .00000634  00000+0  20186-3 0  9995", "line2": "2 33776  86.4035  77.9477 0015133 168.6417 202.3256 14.38246315881791"}}, "geometry": {"type": "Point", "coordinates": [77.4686482178512, -2.522762024142569]}}, {"type": "Feature", "properties": {"norad_id": 33777, "name": "IRIDIUM 33 DEB", "group": "iridium-33-debris", "lat": -73.9485315071557, "lon": -135.3391753016327, "alt_km": 711.4401530940713, "timestamp": "2025-12-20T05:41:50.415641+00:00", "meta": {"OBJECT_NAME": "IRIDIUM 33 DEB", "OBJECT_ID": "1997-051Q", "EPOCH": "2025-12-19T03:47:07.455552", "MEAN_MOTION": 14.5565724, "ECCENTRICITY": 0.00056471, "INCLINATION": 86.3778, "RA_OF_ASC_NODE": 32.4117, "ARG_OF_PERICENTER": 220.5643, "MEAN_ANOMALY": 139.5144, "EPHEMERIS_TYPE": 0, "CLASSIFICATION_TYPE": "U", "NORAD_CAT_ID": 33777, "ELEMENT_SET_NO": 999, "REV_AT_EPOCH": 88627, "BSTAR": 0.00061273741, "MEAN_MOTION_DOT": 2.696e-05, "MEAN_MOTION_DDOT": 0}, "tle": {"line1": "1 33777U 97051Q   25353.15772518  .00002696  00000+0  61274-3 0  9998", "line2": "2 33777  86.3778  32.4117 0005647 220.5643 139.5144 14.55657240886277"}}, "geometry": {"type": "Point", "coordinates": [-135.3391753016327, -73.9485315071557]}}, {"type": "Feature", "properties": {"norad_id": 33850, "name": "IRIDIUM 33 DEB", "group": "iridium-33-debris", "lat": -34.48099933380839, "lon": -150.52558860140033, "alt_km": 755.4644309869927, "timestamp": "2025-12-20T05:41:50.415654+00:00", "meta": {"OBJECT_NAME": "IRIDIUM 33 DEB", "OBJECT_ID": "1997-051T", "EPOCH": "2025-12-19T12:36:52.017120", "MEAN_MOTION": 14.42160787, "ECCENTRICITY": 0.001286, "INCLINATION": 86.3412, "RA_OF_ASC_NODE": 27.2617, "ARG_OF_PERICENTER": 140.6772, "MEAN_ANOMALY": 340.5456, "EPHEMERIS_TYPE": 0, "CLASSIFICATION_TYPE": "U", "NORAD_CAT_ID": 33850, "ELEMENT_SET_NO": 999, "REV_AT_EPOCH": 88250, "BSTAR": 0.00026229, "MEAN_MOTION_DOT": 8.83e-06, "MEAN_MOTION_DDOT": 0}, "tle": {"line1": "1 33850U 97051T   25353.52560205  .00000883  00000+0  26229-3 0  9996", "line2": "2 33850  86.3412  27.2617 0012860 140.6772 340.5456 14.42160787882504"}}, "geometry": {"type": "Point", "coordinates": [-150.52558860140033, -34.48099933380839]}}, {"type": "Feature", "properties": {"norad_id": 33853, "name": "IRIDIUM 33 DEB", "group": "iridium-33-debris", "lat": 25.264771214320874, "lon": 164.6307024897983, "alt_km": 814.2879708688642, "timestamp": "2025-12-20T05:41:50.415667+00:00", "meta": {"OBJECT_NAME": "IRIDIUM 33 DEB", "OBJECT_ID": "1997-051W", "EPOCH": "2025-12-19T17:47:37.724640", "MEAN_MOTION": 13.99098623, "ECCENTRICITY": 0.02072108, "INCLINATION": 85.9997, "RA_OF_ASC_NODE": 346.7406, "ARG_OF_PERICENTER": 214.1992, "MEAN_ANOMALY": 325.7563, "EPHEMERIS_TYPE": 0, "CLASSIFICATION_TYPE": "U", "NORAD_CAT_ID": 33853, "ELEMENT_SET_NO": 999, "REV_AT_EPOCH": 85443, "BSTAR": 0.0011335371, "MEAN_MOTION_DOT": 1.989e-05, "MEAN_MOTION_DDOT": 0}, "tle": {"line1": "1 33853U 97051W   25353.74140885  .00001989  00000+0  11335-2 0  9990", "line2": "2 33853  85.9997 346.7406 0207210 214.1992 325.7563 13.99098623854436"}}, "geometry": {"type": "Point", "coordinates": [164.6307024897983, 25.264771214320874]}}, {"type": "Feature", "properties": {"norad_id": 33860, "name": "IRIDIUM 33 DEB", "group": "iridium-33-debris", "lat": 70.61996447191497, "lon": -166.44168270017803, "alt_km": 665.9907614546164, "timestamp": "2025-12-20T05:41:50.415680+00:00", "meta": {"OBJECT_NAME": "IRIDIUM 33 DEB", "OBJECT_ID": "1997-051AD", "EPOCH": "2025-12-19T13:32:43.473120", "MEAN_MOTION": 14.67445483, "ECCENTRICITY": 0.0006592, "INCLINATION": 86.3824, "RA_OF_ASC_NODE": 24.2173, "ARG_OF_PERICENTER": 332.2396, "MEAN_ANOMALY": 183.725, "EPHEMERIS_TYPE": 0, "CLASSIFICATION_TYPE": "U", "NORAD_CAT_ID": 33860, "ELEMENT_SET_NO": 999, "REV_AT_EPOCH": 88822, "BSTAR": 0.0007628, "MEAN_MOTION_DOT": 4.339e-05, "MEAN_MOTION_DDOT": 0}, "tle": {"line1": "1 33860U 97051AD  25353.56439205  .00004339  00000+0  76280-3 0  9998", "line2": "2 33860  86.3824  24.2173 0006592 332.2396 183.7250 14.67445483888222"}}, "geometry": {"type": "Point", "coordinates": [-166.44168270017803, 70.61996447191497]}}, {"type": "Feature", "properties": {"norad_id": 33862, "name": "IRIDIUM 33 DEB", "group": "iridium-33-debris", "lat": -21.747838588377117, "lon": -144.33990610121276, "alt_km": 702.2277685902254, "timestamp": "2025-12-20T05:41:50.415692+00:00", "meta": {"OBJECT_NAME": "IRIDIUM 33 DEB", "OBJECT_ID": "1997-051AF", "EPOCH": "2025-12-19T04:34:26.830848", "MEAN_MOTION": 14.69572736, "ECCENTRICITY": 0.0052829, "INCLINATION": 86.4085, "RA_OF_ASC_NODE": 34.686, "ARG_OF_PERICENTER": 47.5905, "MEAN_ANOMALY": 19.3889, "EPHEMERIS_TYPE": 0, "CLASSIFICATION_TYPE": "U", "NORAD_CAT_ID": 33862, "ELEMENT_SET_NO": 999, "REV_AT_EPOCH": 88918, "BSTAR": 0.00095208, "MEAN_MOTION_DOT": 5.8e-05, "MEAN_MOTION_DDOT": 0}, "tle": {"line1": "1 33862U 97051AF  25353.19058832  .00005800  00000+0  95208-3 0  9997", "line2": "2 33862  86.4085  34.6860 0052829  47.5905  19.3889 14.69572736889180"}}, "geometry": {"type": "Point", "coordinates": [-144.33990610121276, -21.747838588377117]}}, {"type": "Feature", "properties": {"norad_id": 33866, "name": "IRIDIUM 33 DEB", "group": "iridium-33-debris", "lat": 25.344667005901275, "lon": -91.89265273304952, "alt_km": 727.6567143253606, "timestamp": "2025-12-20T05:41:50.415704+00:00", "meta": {"OBJECT_NAME": "IRIDIUM 33 DEB", "OBJECT_ID": "1997-051AK", "EPOCH": "2025-12-19T17:53:32.660160", "MEAN_MOTION": 14.25294618, "ECCENTRICITY": 0.01149326, "INCLINATION": 86.3, "RA_OF_ASC_NODE": 90.0718, "ARG_OF_PERICENTER": 139.1781, "MEAN_ANOMALY": 12.6912, "EPHEMERIS_TYPE": 0, "CLASSIFICATION_TYPE": "U", "NORAD_CAT_ID": 33866, "ELEMENT_SET_NO": 999, "REV_AT_EPOCH": 86910, "BSTAR": 0.00039483092, "MEAN_MOTION_DOT": 1.015e-05, "MEAN_MOTION_DDOT": 0}, "tle": {"line1": "1 33866U 97051AK  25353.74551690  .00001015  00000+0  39483-3 0  9999", "line2": "2 33866  86.3000  90.0718 0114932 139.1781  12.6912 14.25294618869107"}}, "geometry": {"type": "Point", "coordinates": [-91.89265273304952, 25.344667005901275]}}]}